start=new Date('2023-02-06T00:00:00.000Z').valueOf();
sats=[{"INCLINATION":"53.2198","PERIAPSIS":"538.858","MEAN_MOTION":"15.08834438","COUNTRY_CODE":"US","GP_ID":"224558368","OBJECT_NAME":"STARLINK-3249","SITE":"AFETR","LAUNCH_DATE":"2021-12-02","APOAPSIS":"540.667","EPOCH":"2023-02-05T18:36:06.111936","MEAN_MOTION_DOT":"0.00000168","TLE_LINE1":"1 49730U 21115G   23036.77507074  .00000168  00000-0  28635-4 0  9997","CLASSIFICATION_TYPE":"U","MEAN_ELEMENT_THEORY":"SGP4","RCS_SIZE":"LARGE","NORAD_CAT_ID":"49730","PERIOD":"95.438","ARG_OF_PERICENTER":"97.1776","TLE_LINE2":"2 49730  53.2198 182.5274 0001308  97.1776 262.9365 15.08834438 65111","FILE":"3774172","CENTER_NAME":"EARTH","DECAY_DATE":null,"OBJECT_ID":"2021-115G","EPHEMERIS_TYPE":"0","REV_AT_EPOCH":"6511","ELEMENT_SET_NO":"999","ECCENTRICITY":"0.00013080","TIME_SYSTEM":"UTC","SEMIMAJOR_AXIS":"6917.897","OBJECT_TYPE":"PAYLOAD","REF_FRAME":"TEME","RA_OF_ASC_NODE":"182.5274","MEAN_ANOMALY":"262.9365","MEAN_MOTION_DDOT":"0.0000000000000","BSTAR":"0.00002863500000"},{"ARG_OF_PERICENTER":"91.8044","TLE_LINE2":"2 49731  53.2169 182.5434 0001202  91.8044 268.3086 15.08841328 65116","FILE":"3774172","CENTER_NAME":"EARTH","EPHEMERIS_TYPE":"0","OBJECT_ID":"2021-115H","DECAY_DATE":null,"REV_AT_EPOCH":"6511","ECCENTRICITY":"0.00012020","ELEMENT_SET_NO":"999","TIME_SYSTEM":"UTC","OBJECT_TYPE":"PAYLOAD","SEMIMAJOR_AXIS":"6917.876","REF_FRAME":"TEME","RA_OF_ASC_NODE":"182.5434","MEAN_ANOMALY":"268.3086","BSTAR":"-0.00002968300000","MEAN_MOTION_DDOT":"0.0000000000000","PERIAPSIS":"538.910","MEAN_MOTION":"15.08841328","INCLINATION":"53.2169","COUNTRY_CODE":"US","OBJECT_NAME":"STARLINK-3228","GP_ID":"224558119","SITE":"AFETR","LAUNCH_DATE":"2021-12-02","EPOCH":"2023-02-05T18:30:47.932704","APOAPSIS":"540.573","TLE_LINE1":"1 49731U 21115H   23036.77138811 -.00000760  00000-0 -29683-4 0  9991","MEAN_MOTION_DOT":"-0.00000760","CLASSIFICATION_TYPE":"U","MEAN_ELEMENT_THEORY":"SGP4","RCS_SIZE":"LARGE","NORAD_CAT_ID":"49731","PERIOD":"95.437"},{"REF_FRAME":"TEME","RA_OF_ASC_NODE":"182.4778","SEMIMAJOR_AXIS":"6917.889","OBJECT_TYPE":"PAYLOAD","BSTAR":"0.00002981500000","MEAN_MOTION_DDOT":"0.0000000000000","MEAN_ANOMALY":"277.0188","REV_AT_EPOCH":"6511","EPHEMERIS_TYPE":"0","DECAY_DATE":null,"OBJECT_ID":"2021-115J","TIME_SYSTEM":"UTC","ECCENTRICITY":"0.00010680","ELEMENT_SET_NO":"999","TLE_LINE2":"2 49732  53.2175 182.4778 0001068  83.0926 277.0188 15.08837343 65118","FILE":"3774172","CENTER_NAME":"EARTH","ARG_OF_PERICENTER":"83.0926","RCS_SIZE":"LARGE","MEAN_ELEMENT_THEORY":"SGP4","PERIOD":"95.438","NORAD_CAT_ID":"49732","CLASSIFICATION_TYPE":"U","LAUNCH_DATE":"2021-12-02","SITE":"AFETR","TLE_LINE1":"1 49732U 21115J   23036.78610697  .00000187  00000-0  29815-4 0  9998","MEAN_MOTION_DOT":"0.00000187","EPOCH":"2023-02-05T18:51:59.642208","APOAPSIS":"540.492","MEAN_MOTION":"15.08837343","PERIAPSIS":"539.015","INCLINATION":"53.2175","OBJECT_NAME":"STARLINK-3246","GP_ID":"224559369","COUNTRY_CODE":"US"},{"RCS_SIZE":"LARGE","MEAN_ELEMENT_THEORY":"SGP4","PERIOD":"95.438","NORAD_CAT_ID":"49733","CLASSIFICATION_TYPE":"U","LAUNCH_DATE":"2021-12-02","SITE":"AFETR","MEAN_MOTION_DOT":"0.00000311","TLE_LINE1":"1 49733U 21115K   23036.77874733  .00000311  00000-0  37615-4 0  9997","APOAPSIS":"540.574","EPOCH":"2023-02-05T18:41:23.769312","INCLINATION":"53.2164","PERIAPSIS":"538.926","MEAN_MOTION":"15.08838365","GP_ID":"224559106","OBJECT_NAME":"STARLINK-3252","COUNTRY_CODE":"US","RA_OF_ASC_NODE":"182.5089","REF_FRAME":"TEME","OBJECT_TYPE":"PAYLOAD","SEMIMAJOR_AXIS":"6917.885","MEAN_MOTION_DDOT":"0.0000000000000","BSTAR":"0.00003761500000","MEAN_ANOMALY":"271.3506","REV_AT_EPOCH":"6511","DECAY_DATE":null,"OBJECT_ID":"2021-115K","EPHEMERIS_TYPE":"0","TIME_SYSTEM":"UTC","ELEMENT_SET_NO":"999","ECCENTRICITY":"0.00011910","TLE_LINE2":"2 49733  53.2164 182.5089 0001191  88.7623 271.3506 15.08838365 65112","CENTER_NAME":"EARTH","FILE":"3774172","ARG_OF_PERICENTER":"88.7623"},{"CLASSIFICATION_TYPE":"U","NORAD_CAT_ID":"49734","PERIOD":"95.438","MEAN_ELEMENT_THEORY":"SGP4","RCS_SIZE":"LARGE","COUNTRY_CODE":"US","OBJECT_NAME":"STARLINK-3238","GP_ID":"224557869","PERIAPSIS":"539.022","MEAN_MOTION":"15.08840722","INCLINATION":"53.2174","EPOCH":"2023-02-05T19:09:12.986208","APOAPSIS":"540.464","TLE_LINE1":"1 49734U 21115L   23036.79806697  .00000191  00000-0  30096-4 0  9996","MEAN_MOTION_DOT":"0.00000191","SITE":"AFETR","LAUNCH_DATE":"2021-12-02","ECCENTRICITY":"0.00010420","ELEMENT_SET_NO":"999","TIME_SYSTEM":"UTC","EPHEMERIS_TYPE":"0","DECAY_DATE":null,"OBJECT_ID":"2021-115L","REV_AT_EPOCH":"6526","MEAN_ANOMALY":"256.9539","BSTAR":"0.00003009600000","MEAN_MOTION_DDOT":"0.0000000000000","OBJECT_TYPE":"PAYLOAD","SEMIMAJOR_AXIS":"6917.878","RA_OF_ASC_NODE":"172.4448","REF_FRAME":"TEME","ARG_OF_PERICENTER":"103.1570","FILE":"3774172","CENTER_NAME":"EARTH","TLE_LINE2":"2 49734  53.2174 172.4448 0001042 103.1570 256.9539 15.08840722 65260"},{"REF_FRAME":"TEME","RA_OF_ASC_NODE":"182.4939","OBJECT_TYPE":"PAYLOAD","SEMIMAJOR_AXIS":"6917.882","BSTAR":"0.00002296100000","MEAN_MOTION_DDOT":"0.0000000000000","MEAN_ANOMALY":"275.5373","REV_AT_EPOCH":"6511","EPHEMERIS_TYPE":"0","DECAY_DATE":null,"OBJECT_ID":"2021-115M","TIME_SYSTEM":"UTC","ECCENTRICITY":"0.00010100","ELEMENT_SET_NO":"999","TLE_LINE2":"2 49735  53.2165 182.4939 0001010  84.5735 275.5373 15.08839372 65113","CENTER_NAME":"EARTH","FILE":"3774172","ARG_OF_PERICENTER":"84.5735","RCS_SIZE":"LARGE","MEAN_ELEMENT_THEORY":"SGP4","PERIOD":"95.438","NORAD_CAT_ID":"49735","CLASSIFICATION_TYPE":"U","LAUNCH_DATE":"2021-12-02","SITE":"AFETR","TLE_LINE1":"1 49735U 21115M   23036.78242683  .00000078  00000-0  22961-4 0  9991","MEAN_MOTION_DOT":"0.00000078","EPOCH":"2023-02-05T18:46:41.678112","APOAPSIS":"540.446","PERIAPSIS":"539.049","MEAN_MOTION":"15.08839372","INCLINATION":"53.2165","OBJECT_NAME":"STARLINK-3113","GP_ID":"224558619","COUNTRY_CODE":"US"},{"ARG_OF_PERICENTER":"87.5284","CENTER_NAME":"EARTH","FILE":"3774172","TLE_LINE2":"2 49736  53.2165 172.3897 0001102  87.5284 272.5834 15.08839867 65263","TIME_SYSTEM":"UTC","ELEMENT_SET_NO":"999","ECCENTRICITY":"0.00011020","REV_AT_EPOCH":"6526","OBJECT_ID":"2021-115N","DECAY_DATE":null,"EPHEMERIS_TYPE":"0","MEAN_MOTION_DDOT":"0.0000000000000","BSTAR":"-0.00015346000000","MEAN_ANOMALY":"272.5834","RA_OF_ASC_NODE":"172.3897","REF_FRAME":"TEME","OBJECT_TYPE":"PAYLOAD","SEMIMAJOR_AXIS":"6917.881","GP_ID":"224558871","OBJECT_NAME":"STARLINK-3148","COUNTRY_CODE":"US","INCLINATION":"53.2165","MEAN_MOTION":"15.08839867","PERIAPSIS":"538.983","MEAN_MOTION_DOT":"-0.00002729","TLE_LINE1":"1 49736U 21115N   23036.80542635 -.00002729  00000-0 -15346-3 0  9990","APOAPSIS":"540.508","EPOCH":"2023-02-05T19:19:48.836640","LAUNCH_DATE":"2021-12-02","SITE":"AFETR","CLASSIFICATION_TYPE":"U","PERIOD":"95.438","NORAD_CAT_ID":"49736","RCS_SIZE":"LARGE","MEAN_ELEMENT_THEORY":"SGP4"},{"INCLINATION":"53.2158","PERIAPSIS":"538.923","MEAN_MOTION":"15.08840487","COUNTRY_CODE":"US","GP_ID":"224559606","OBJECT_NAME":"STARLINK-3225","SITE":"AFETR","LAUNCH_DATE":"2021-12-02","APOAPSIS":"540.565","EPOCH":"2023-02-05T19:14:30.672960","MEAN_MOTION_DOT":"0.00001278","TLE_LINE1":"1 49737U 21115P   23036.80174390  .00001278  00000-0  98358-4 0  9991","CLASSIFICATION_TYPE":"U","MEAN_ELEMENT_THEORY":"SGP4","RCS_SIZE":"LARGE","NORAD_CAT_ID":"49737","PERIOD":"95.438","ARG_OF_PERICENTER":"87.6618","TLE_LINE2":"2 49737  53.2158 172.4061 0001187  87.6618 272.4510 15.08840487 65265","CENTER_NAME":"EARTH","FILE":"3774172","DECAY_DATE":null,"OBJECT_ID":"2021-115P","EPHEMERIS_TYPE":"0","REV_AT_EPOCH":"6526","ELEMENT_SET_NO":"999","ECCENTRICITY":"0.00011870","TIME_SYSTEM":"UTC","OBJECT_TYPE":"PAYLOAD","SEMIMAJOR_AXIS":"6917.879","RA_OF_ASC_NODE":"172.4061","REF_FRAME":"TEME","MEAN_ANOMALY":"272.4510","MEAN_MOTION_DDOT":"0.0000000000000","BSTAR":"0.00009835800000"},{"ARG_OF_PERICENTER":"99.2704","CENTER_NAME":"EARTH","FILE":"3774172","TLE_LINE2":"2 49738  53.2185 173.2641 0001359  99.2704 260.8442 15.08827505 65233","ECCENTRICITY":"0.00013590","ELEMENT_SET_NO":"999","TIME_SYSTEM":"UTC","EPHEMERIS_TYPE":"0","OBJECT_ID":"2021-115Q","DECAY_DATE":null,"REV_AT_EPOCH":"6523","MEAN_ANOMALY":"260.8442","BSTAR":"0.00002942800000","MEAN_MOTION_DDOT":"0.0000000000000","SEMIMAJOR_AXIS":"6917.919","OBJECT_TYPE":"PAYLOAD","RA_OF_ASC_NODE":"173.2641","REF_FRAME":"TEME","COUNTRY_CODE":"US","OBJECT_NAME":"STARLINK-3143","GP_ID":"224558369","PERIAPSIS":"538.843","MEAN_MOTION":"15.08827505","INCLINATION":"53.2185","EPOCH":"2023-02-05T14:38:58.032960","APOAPSIS":"540.724","TLE_LINE1":"1 49738U 21115Q   23036.61039390  .00000180  00000-0  29428-4 0  9994","MEAN_MOTION_DOT":"0.00000180","SITE":"AFETR","LAUNCH_DATE":"2021-12-02","CLASSIFICATION_TYPE":"U","NORAD_CAT_ID":"49738","PERIOD":"95.438","MEAN_ELEMENT_THEORY":"SGP4","RCS_SIZE":"LARGE"},{"PERIOD":"95.438","NORAD_CAT_ID":"49739","RCS_SIZE":"LARGE","MEAN_ELEMENT_THEORY":"SGP4","CLASSIFICATION_TYPE":"U","TLE_LINE1":"1 49739U 21115R   23036.78978808  .00002515  00000-0  17607-3 0  9998","MEAN_MOTION_DOT":"0.00002515","EPOCH":"2023-02-05T18:57:17.690112","APOAPSIS":"540.639","LAUNCH_DATE":"2021-12-02","SITE":"AFETR","OBJECT_NAME":"STARLINK-3155","GP_ID":"224558120","COUNTRY_CODE":"US","PERIAPSIS":"538.885","MEAN_MOTION":"15.08834526","INCLINATION":"53.2149","BSTAR":"0.00017607000000","MEAN_MOTION_DDOT":"0.0000000000000","MEAN_ANOMALY":"276.4575","RA_OF_ASC_NODE":"182.4595","REF_FRAME":"TEME","SEMIMAJOR_AXIS":"6917.897","OBJECT_TYPE":"PAYLOAD","TIME_SYSTEM":"UTC","ECCENTRICITY":"0.00012680","ELEMENT_SET_NO":"999","REV_AT_EPOCH":"6511","EPHEMERIS_TYPE":"0","DECAY_DATE":null,"OBJECT_ID":"2021-115R","CENTER_NAME":"EARTH","FILE":"3774172","TLE_LINE2":"2 49739  53.2149 182.4595 0001268  83.6562 276.4575 15.08834526 65110","ARG_OF_PERICENTER":"83.6562"}];
